[{"OBJECT_NAME":"STARLINK-4278","OBJECT_ID":"2022-083BC","EPOCH":"2026-03-09T10:55:33.298464","MEAN_MOTION":15.08842599,"ECCENTRICITY":0.00014936,"INCLINATION":53.2175,"RA_OF_ASC_NODE":140.166,"ARG_OF_PERICENTER":93.1625,"MEAN_ANOMALY":266.9538,"EPHEMERIS_TYPE":0,"CLASSIFICATION_TYPE":"U","NORAD_CAT_ID":53182,"ELEMENT_SET_NO":999,"REV_AT_EPOCH":20166,"BSTAR":4.2861899e-5,"MEAN_MOTION_DOT":3.94e-6,"MEAN_MOTION_DDOT":0},{"OBJECT_NAME":"CZ-4B DEB","OBJECT_ID":"2006-015C","EPOCH":"2026-03-08T07:50:56.789952","MEAN_MOTION":14.91364963,"ECCENTRICITY":0.00849927,"INCLINATION":97.8628,"RA_OF_ASC_NODE":27.0975,"ARG_OF_PERICENTER":296.8782,"MEAN_ANOMALY":62.3767,"EPHEMERIS_TYPE":0,"CLASSIFICATION_TYPE":"U","NORAD_CAT_ID":29536,"ELEMENT_SET_NO":999,"REV_AT_EPOCH":4888,"BSTAR":0.0026311155,"MEAN_MOTION_DOT":0.00028164,"MEAN_MOTION_DDOT":0}]
